[{"OBJECT_NAME":"FALCONSAT-6","OBJECT_ID":"2018-099BK","EPOCH":"2026-03-09T17:24:38.352096","MEAN_MOTION":15.26532865,"ECCENTRICITY":0.00143698,"INCLINATION":97.3865,"RA_OF_ASC_NODE":145.8165,"ARG_OF_PERICENTER":297.0944,"MEAN_ANOMALY":181.0714,"EPHEMERIS_TYPE":0,"CLASSIFICATION_TYPE":"U","NORAD_CAT_ID":43815,"ELEMENT_SET_NO":999,"REV_AT_EPOCH":39855,"BSTAR":0.00019476898,"MEAN_MOTION_DOT":5.029e-5,"MEAN_MOTION_DDOT":0},{"OBJECT_NAME":"STARLINK-30780","OBJECT_ID":"2023-162Y","EPOCH":"2026-03-09T22:00:01.999584","MEAN_MOTION":15.26736693,"ECCENTRICITY":0.00014227,"INCLINATION":43.0012,"RA_OF_ASC_NODE":130.8819,"ARG_OF_PERICENTER":263.9518,"MEAN_ANOMALY":163.111,"EPHEMERIS_TYPE":0,"CLASSIFICATION_TYPE":"U","NORAD_CAT_ID":58140,"ELEMENT_SET_NO":999,"REV_AT_EPOCH":563,"BSTAR":-0.00029071414,"MEAN_MOTION_DOT":-8.049e-5,"MEAN_MOTION_DDOT":0}]
